CCSDS_OMM_VERS,COMMENT,CREATION_DATE,ORIGINATOR,OBJECT_NAME,OBJECT_ID,CENTER_NAME,REF_FRAME,TIME_SYSTEM,MEAN_ELEMENT_THEORY,EPOCH,MEAN_MOTION,ECCENTRICITY,INCLINATION,RA_OF_ASC_NODE,ARG_OF_PERICENTER,MEAN_ANOMALY,EPHEMERIS_TYPE,CLASSIFICATION_TYPE,NORAD_CAT_ID,ELEMENT_SET_NO,REV_AT_EPOCH,BSTAR,MEAN_MOTION_DOT,MEAN_MOTION_DDOT,SEMIMAJOR_AXIS,PERIOD,APOAPSIS,PERIAPSIS,OBJECT_TYPE,RCS_SIZE,COUNTRY_CODE,LAUNCH_DATE,SITE,DECAY_DATE,FILE,GP_ID,TLE_LINE0,TLE_LINE1,TLE_LINE2
"2.0","GENERATED VIA SPACE-TRACK.ORG API","2012-10-22T00:39:03","18 SPCS","BLITS","2009-049G","EARTH","TEME","UTC","SGP4","2012-10-22T00:56:56.522111","14.21591060","0.00045220","98.6318","346.8885","46.3452","313.8100","0","U","35871","999","15998","0.00002465900000","0.00000011","0.0000000000000","7198.118","101.294","823.238","816.728","PAYLOAD","SMALL","CIS","2009-09-17","TTMTR","","1371311","91152536","0 BLITS","1 35871U 09049G   12296.03954308  .00000011  00000-0  24659-4 0  9990","2 35871 098.6318 346.8885 0004522 046.3452 313.8100 14.21591060159987"
"2.0","GENERATED VIA SPACE-TRACK.ORG API","2012-10-22T08:56:09","18 SPCS","BLITS","2009-049G","EARTH","TEME","UTC","SGP4","2012-10-22T02:38:17.656511","14.21591169","0.00045060","98.6317","346.9575","46.1403","314.0161","0","U","35871","999","15999","0.00002740200000","0.00000017","0.0000000000000","7198.118","101.294","823.226","816.739","PAYLOAD","SMALL","CIS","2009-09-17","TTMTR","","1371464","91155508","0 BLITS","1 35871U 09049G   12296.10992658  .00000017  00000-0  27402-4 0  9993","2 35871 098.6317 346.9575 0004506 046.1403 314.0161 14.21591169159990"
"2.0","GENERATED VIA SPACE-TRACK.ORG API","2012-10-22T16:43:17","18 SPCS","BLITS","2009-049G","EARTH","TEME","UTC","SGP4","2012-10-22T16:09:06.688512","14.21591281","0.00044800","98.6320","347.5084","45.1979","314.9559","0","U","35871","999","16007","0.00002934000000","0.00000021","0.0000000000000","7198.117","101.294","823.207","816.758","PAYLOAD","SMALL","CIS","2009-09-17","TTMTR","","1371706","91165988","0 BLITS","1 35871U 09049G   12296.67299408  .00000021  00000-0  29340-4 0  9996","2 35871 098.6320 347.5084 0004480 045.1979 314.9559 14.21591281160070"
"2.0","GENERATED VIA SPACE-TRACK.ORG API","2012-10-23T00:40:32","18 SPCS","BLITS","2009-049G","EARTH","TEME","UTC","SGP4","2012-10-23T03:58:34.620671","14.21591400","0.00044840","98.6319","347.9905","43.7272","316.4262","0","U","35871","999","16014","0.00003119200000","0.00000025","0.0000000000000","7198.117","101.294","823.210","816.754","PAYLOAD","SMALL","CIS","2009-09-17","TTMTR","","1371932","91168544","0 BLITS","1 35871U 09049G   12297.16567848  .00000025  00000-0  31192-4 0  9999","2 35871 098.6319 347.9905 0004484 043.7272 316.4262 14.21591400160147"
"2.0","GENERATED VIA SPACE-TRACK.ORG API","2012-10-23T16:43:06","18 SPCS","BLITS","2009-049G","EARTH","TEME","UTC","SGP4","2012-10-23T17:29:23.672543","14.21591540","0.00044980","98.6317","348.5409","42.2665","317.8856","0","U","35871","999","16022","0.00003394200000","0.00000031","0.0000000000000","7198.116","101.294","823.219","816.744","PAYLOAD","SMALL","CIS","2009-09-17","TTMTR","","1372319","91181766","0 BLITS","1 35871U 09049G   12297.72874621  .00000031  00000-0  33942-4 0  9993","2 35871 098.6317 348.5409 0004498 042.2665 317.8856 14.21591540160224"
"2.0","GENERATED VIA SPACE-TRACK.ORG API","2012-10-24T01:35:38","18 SPCS","BLITS","2009-049G","EARTH","TEME","UTC","SGP4","2012-10-24T03:37:30.473760","14.21591520","0.00044770","98.6316","348.9541","41.5870","318.5644","0","U","35871","999","16028","0.00003088900000","0.00000025","0.0000000000000","7198.117","101.294","823.204","816.759","PAYLOAD","SMALL","CIS","2009-09-17","TTMTR","","1372785","91184769","0 BLITS","1 35871U 09049G   12298.15104715  .00000025  00000-0  30889-4 0  9991","2 35871 098.6316 348.9541 0004477 041.5870 318.5644 14.21591520160288"
"2.0","GENERATED VIA SPACE-TRACK.ORG API","2012-10-24T16:41:39","18 SPCS","BLITS","2009-049G","EARTH","TEME","UTC","SGP4","2012-10-24T17:08:19.540319","14.21591531","0.00044360","98.6312","349.5043","39.8105","320.3393","0","U","35871","999","16036","0.00002864600000","0.00000020","0.0000000000000","7198.116","101.294","823.175","816.788","PAYLOAD","SMALL","CIS","2009-09-17","TTMTR","","1373247","91198018","0 BLITS","1 35871U 09049G   12298.71411505  .00000020  00000-0  28646-4 0  9994","2 35871 098.6312 349.5043 0004436 039.8105 320.3393 14.21591531160367"
"2.0","GENERATED VIA SPACE-TRACK.ORG API","2012-10-25T01:04:13","18 SPCS","BLITS","2009-049G","EARTH","TEME","UTC","SGP4","2012-10-25T03:16:26.339807","14.21591576","0.00044240","98.6308","349.9174","39.0908","321.0591","0","U","35871","999","16042","0.00002759800000","0.00000017","0.0000000000000","7198.116","101.294","823.166","816.797","PAYLOAD","SMALL","CIS","2009-09-17","TTMTR","","1373514","91200960","0 BLITS","1 35871U 09049G   12299.13641597  .00000017  00000-0  27598-4 0  9998","2 35871 098.6308 349.9174 0004424 039.0908 321.0591 14.21591576160425"
"2.0","GENERATED VIA SPACE-TRACK.ORG API","2012-10-25T16:56:28","18 SPCS","BLITS","2009-049G","EARTH","TEME","UTC","SGP4","2012-10-25T16:47:15.409824","14.21591407","0.00043910","98.6308","350.4678","37.4537","322.6938","0","U","35871","999","16050","0.00001886200000","-0.00000002","0.0000000000000","7198.117","101.294","823.143","816.821","PAYLOAD","SMALL","CIS","2009-09-17","TTMTR","","1373937","91214329","0 BLITS","1 35871U 09049G   12299.69948391 -.00000002  00000-0  18862-4 0  9990","2 35871 098.6308 350.4678 0004391 037.4537 322.6938 14.21591407160508"
"2.0","GENERATED VIA SPACE-TRACK.ORG API","2012-10-26T00:42:01","18 SPCS","BLITS","2009-049G","EARTH","TEME","UTC","SGP4","2012-10-26T01:14:01.087007","14.21591527","0.00043470","98.6306","350.8115","36.5231","323.6253","0","U","35871","999","16055","0.00002135500000","0.00000004","0.0000000000000","7198.116","101.294","823.111","816.852","PAYLOAD","SMALL","CIS","2009-09-17","TTMTR","","1374273","91217383","0 BLITS","1 35871U 09049G   12300.05140147  .00000004  00000-0  21355-4 0  9998","2 35871 098.6306 350.8115 0004347 036.5231 323.6253 14.21591527160557"
"2.0","GENERATED VIA SPACE-TRACK.ORG API","2012-10-26T08:47:52","18 SPCS","BLITS","2009-049G","EARTH","TEME","UTC","SGP4","2012-10-26T02:55:22.199807","14.21591436","0.00043620","98.6306","350.8809","36.5884","323.5584","0","U","35871","999","16056","0.00001753300000","-0.00000005","0.0000000000000","7198.117","101.294","823.122","816.842","PAYLOAD","SMALL","CIS","2009-09-17","TTMTR","","1374434","91220221","0 BLITS","1 35871U 09049G   12300.12178472 -.00000005  00000-0  17533-4 0  9993","2 35871 098.6306 350.8809 0004362 036.5884 323.5584 14.21591436160564"
"2.0","GENERATED VIA SPACE-TRACK.ORG API","2012-10-26T16:52:45","18 SPCS","BLITS","2009-049G","EARTH","TEME","UTC","SGP4","2012-10-26T14:44:50.140607","14.21591619","0.00042960","98.6305","351.3624","36.1688","323.9798","0","U","35871","999","16063","0.00002193300000","0.00000005","0.0000000000000","7198.116","101.294","823.073","816.889","PAYLOAD","SMALL","CIS","2009-09-17","TTMTR","","1374677","91230699","0 BLITS","1 35871U 09049G   12300.61446922  .00000005  00000-0  21933-4 0  9993","2 35871 098.6305 351.3624 0004296 036.1688 323.9798 14.21591619160630"
"2.0","GENERATED VIA SPACE-TRACK.ORG API","2012-10-26T19:48:09","18 SPCS","BLITS","2009-049G","EARTH","TEME","UTC","SGP4","2012-10-27T00:52:56.900352","14.21591756","0.00043510","98.6308","351.7757","34.5958","325.5508","0","U","35871","999","16069","0.00002592000000","0.00000014","0.0000000000000","7198.116","101.294","823.113","816.849","PAYLOAD","SMALL","CIS","2009-09-17","TTMTR","","1374805","91232533","0 BLITS","1 35871U 09049G   12301.03676968  .00000014  00000-0  25920-4 0  9995","2 35871 098.6308 351.7757 0004351 034.5958 325.5508 14.21591756160693"
"2.0","GENERATED VIA SPACE-TRACK.ORG API","2012-10-27T00:39:26","18 SPCS","BLITS","2009-049G","EARTH","TEME","UTC","SGP4","2012-10-27T02:34:18.021792","14.21591774","0.00043210","98.6306","351.8446","34.4640","325.6821","0","U","35871","999","16070","0.00002574200000","0.00000013","0.0000000000000","7198.116","101.294","823.091","816.870","PAYLOAD","SMALL","CIS","2009-09-17","TTMTR","","1374889","91233454","0 BLITS","1 35871U 09049G   12301.10715303  .00000013  00000-0  25742-4 0  9991","2 35871 098.6306 351.8446 0004321 034.4640 325.6821 14.21591774160702"
"2.0","GENERATED VIA SPACE-TRACK.ORG API","2012-10-27T16:50:48","18 SPCS","BLITS","2009-049G","EARTH","TEME","UTC","SGP4","2012-10-27T16:05:07.052927","14.21591903","0.00043350","98.6307","352.3954","33.1834","326.9612","0","U","35871","999","16078","0.00002872100000","0.00000020","0.0000000000000","7198.115","101.294","823.101","816.860","PAYLOAD","SMALL","CIS","2009-09-17","TTMTR","","1375225","91239239","0 BLITS","1 35871U 09049G   12301.67022052  .00000020  00000-0  28721-4 0  9993","2 35871 098.6307 352.3954 0004335 033.1834 326.9612 14.21591903160783"
"2.0","GENERATED VIA SPACE-TRACK.ORG API","2012-10-28T00:49:28","18 SPCS","BLITS","2009-049G","EARTH","TEME","UTC","SGP4","2012-10-28T03:54:34.971264","14.21591860","0.00042790","98.6303","352.8769","32.4624","327.6805","0","U","35871","999","16085","0.00002524600000","0.00000012","0.0000000000000","7198.115","101.294","823.060","816.900","PAYLOAD","SMALL","CIS","2009-09-17","TTMTR","","1375349","91242136","0 BLITS","1 35871U 09049G   12302.16290476  .00000012  00000-0  25246-4 0  9995","2 35871 098.6303 352.8769 0004279 032.4624 327.6805 14.21591860160856"
